[{"OBJECT_NAME":"STARLINK-5236","OBJECT_ID":"2023-010F","EPOCH":"2026-03-09T22:43:04.842912","MEAN_MOTION":14.98342601,"ECCENTRICITY":0.00031251,"INCLINATION":70.0009,"RA_OF_ASC_NODE":23.9711,"ARG_OF_PERICENTER":268.8514,"MEAN_ANOMALY":91.2288,"EPHEMERIS_TYPE":0,"CLASSIFICATION_TYPE":"U","NORAD_CAT_ID":55274,"ELEMENT_SET_NO":999,"REV_AT_EPOCH":17331,"BSTAR":-0.00032101058,"MEAN_MOTION_DOT":-3.922e-5,"MEAN_MOTION_DDOT":0},{"OBJECT_NAME":"FENGYUN 1C DEB","OBJECT_ID":"1999-025CDD","EPOCH":"2026-03-09T11:33:45.810144","MEAN_MOTION":14.75920434,"ECCENTRICITY":0.01680026,"INCLINATION":98.2535,"RA_OF_ASC_NODE":159.595,"ARG_OF_PERICENTER":312.1312,"MEAN_ANOMALY":46.5721,"EPHEMERIS_TYPE":0,"CLASSIFICATION_TYPE":"U","NORAD_CAT_ID":31695,"ELEMENT_SET_NO":999,"REV_AT_EPOCH":67250,"BSTAR":0.0010431251,"MEAN_MOTION_DOT":8.978e-5,"MEAN_MOTION_DDOT":0}]
